STARLINK-31524          
1 59506U 24071Y   26068.42845185 -.00001710  00000+0 -52637-4 0  9995
2 59506  43.0057 334.2763 0001266 272.5503  87.5204 15.27565301108249
FLOCK 4G-24             
1 62637U 25009AE  26068.72509072  .00010513  00000+0  38996-3 0  9991
2 62637  97.4061 151.5140 0001802 280.2808  79.8228 15.27784978 63732
